API VERSION: 1.2
API SOURCE: NASA/JPL Horizons API



*******************************************************************************
Ephemeris / API_USER Wed Apr  1 03:28:33 2026 Pasadena, USA      / Horizons
*******************************************************************************
Target body name: Moon (301)                      {source: DE441}
Center body name: Earth (399)                     {source: DE441}
Center-site name: BODY CENTER
*******************************************************************************
Start time      : A.D. 2026-Apr-02 02:00:00.0000 TDB
Stop  time      : A.D. 2026-Apr-10 23:00:00.0000 TDB
Step-size       : 10 minutes
*******************************************************************************
Center geodetic : 0.0, 0.0, 0.0                   {E-lon(deg),Lat(deg),Alt(km)}
Center cylindric: 0.0, 0.0, 0.0                   {E-lon(deg),Dxy(km),Dz(km)}
Center radii    : 6378.137, 6378.137, 6356.752 km {Equator_a, b, pole_c}
Output units    : KM-S
Calendar mode   : Mixed Julian/Gregorian
Output type     : GEOMETRIC cartesian states
Output format   : 3 (position, velocity, LT, range, range-rate)
EOP file        : eop.260331.p260627
EOP coverage    : DATA-BASED 1962-JAN-20 TO 2026-MAR-31. PREDICTS-> 2026-JUN-26
Reference frame : ICRF
*******************************************************************************
JDTDB
   X     Y     Z
   VX    VY    VZ
   LT    RG    RR
*******************************************************************************
$$SOE
2461138.222222222 = A.D. 2026-Apr-07 17:20:00.0000 TDB 
 X =-6.758663790598318E+04 Y =-3.506747403673411E+05 Z =-1.907806238693566E+05
 VX= 9.536246777734821E-01 VY=-1.533772467631641E-01 VZ=-4.545998660311219E-02
 LT= 1.350576156735986E+00 RG= 4.048925457440745E+05 RR=-4.924454707007582E-03
2461138.229166667 = A.D. 2026-Apr-07 17:30:00.0000 TDB 
 X =-6.701439262118212E+04 Y =-3.507663815681940E+05 Z =-1.908076902144497E+05
 VX= 9.538592611004135E-01 VY=-1.520933606384219E-01 VZ=-4.476114400831285E-02
 LT= 1.350566206035908E+00 RG= 4.048895625992392E+05 RR=-5.019370577050898E-03
2461138.236111111 = A.D. 2026-Apr-07 17:40:00.0000 TDB 
 X =-6.644200720526664E+04 Y =-3.508572523258034E+05 Z =-1.908343372186511E+05
 VX= 9.540917814076332E-01 VY=-1.508091029948912E-01 VZ=-4.406218383625484E-02
 LT= 1.350556065317733E+00 RG= 4.048865224884116E+05 RR=-5.114341299237114E-03
2461138.243055556 = A.D. 2026-Apr-07 17:50:00.0000 TDB 
 X =-6.586948289619348E+04 Y =-3.509473524179359E+05 Z =-1.908605648117847E+05
 VX= 9.543222382123474E-01 VY=-1.495244760915498E-01 VZ=-4.336310732182960E-02
 LT= 1.350545734471972E+00 RG= 4.048834253787679E+05 RR=-5.209366582406649E-03
2461138.250000000 = A.D. 2026-Apr-07 18:00:00.0000 TDB 
 X =-6.529682093220852E+04 Y =-3.510366816237132E+05 Z =-1.908863729244158E+05
 VX= 9.545506310336321E-01 VY=-1.482394821876118E-01 VZ=-4.266391569997553E-02
 LT= 1.350535213389721E+00 RG= 4.048802712376589E+05 RR=-5.304446134869665E-03
2461138.256944444 = A.D. 2026-Apr-07 18:10:00.0000 TDB 
 X =-6.472402255184564E+04 Y =-3.511252397236128E+05 Z =-1.909117614878502E+05
 VX= 9.547769593924281E-01 VY=-1.469541235425299E-01 VZ=-4.196461020567927E-02
 LT= 1.350524501962657E+00 RG= 4.048770600326106E+05 RR=-5.399579664406207E-03
2461138.263888889 = A.D. 2026-Apr-07 18:20:00.0000 TDB 
 X =-6.415108899392556E+04 Y =-3.512130264994679E+05 Z =-1.909367304341351E+05
 VX= 9.550012228115399E-01 VY=-1.456684024159986E-01 VZ=-4.126519207397737E-02
 LT= 1.350513600083044E+00 RG= 4.048737917313246E+05 RR=-5.494766878267224E-03
2461138.270833333 = A.D. 2026-Apr-07 18:30:00.0000 TDB 
 X =-6.357802149755481E+04 Y =-3.513000417344677E+05 Z =-1.909612796960585E+05
 VX= 9.552234208156328E-01 VY=-1.443823210679562E-01 VZ=-4.056566253995764E-02
 LT= 1.350502507643733E+00 RG= 4.048704663016785E+05 RR=-5.590007483175232E-03
2461138.277777778 = A.D. 2026-Apr-07 18:40:00.0000 TDB 
 X =-6.300482130212451E+04 Y =-3.513862852131572E+05 Z =-1.909854092071496E+05
 VX= 9.554435529312324E-01 VY=-1.430958817585882E-01 VZ=-3.986602283876071E-02
 LT= 1.350491224538162E+00 RG= 4.048670837117255E+05 RR=-5.685301185325294E-03
2461138.284722222 = A.D. 2026-Apr-07 18:50:00.0000 TDB 
 X =-6.243148964730936E+04 Y =-3.514717567214378E+05 Z =-1.910091189016787E+05
 VX= 9.556616186867191E-01 VY=-1.418090867483291E-01 VZ=-3.916627420558152E-02
 LT= 1.350479750660357E+00 RG= 4.048636439296955E+05 RR=-5.780647690385214E-03
2461138.291666667 = A.D. 2026-Apr-07 19:00:00.0000 TDB 
 X =-6.185802777306643E+04 Y =-3.515564560465671E+05 Z =-1.910324087146570E+05
 VX= 9.558776176123294E-01 VY=-1.405219382978658E-01 VZ=-3.846641787567085E-02
 LT= 1.350468085904934E+00 RG= 4.048601469239953E+05 RR=-5.876046703496910E-03
2461138.298611111 = A.D. 2026-Apr-07 19:10:00.0000 TDB 
 X =-6.128443691963414E+04 Y =-3.516403829771594E+05 Z =-1.910552785818372E+05
 VX= 9.560915492401515E-01 VY=-1.392344386681399E-01 VZ=-3.776645508433679E-02
 LT= 1.350456230167100E+00 RG= 4.048565926632088E+05 RR=-5.971497929276735E-03
2461138.305555556 = A.D. 2026-Apr-07 19:20:00.0000 TDB 
 X =-6.071071832753103E+04 Y =-3.517235373031853E+05 Z =-1.910777284397130E+05
 VX= 9.563034131041235E-01 VY=-1.379465901203505E-01 VZ=-3.706638706694632E-02
 LT= 1.350444183342654E+00 RG= 4.048529811160968E+05 RR=-6.067001071816364E-03
2461138.312500000 = A.D. 2026-Apr-07 19:30:00.0000 TDB 
 X =-6.013687323755481E+04 Y =-3.518059188159725E+05 Z =-1.910997582255194E+05
 VX= 9.565132087400323E-01 VY=-1.366583949159568E-01 VZ=-3.636621505892675E-02
 LT= 1.350431945327986E+00 RG= 4.048493122515985E+05 RR=-6.162555834683703E-03
2461138.319444444 = A.D. 2026-Apr-07 19:40:00.0000 TDB 
 X =-5.956290289078109E+04 Y =-3.518875273082054E+05 Z =-1.911213678772326E+05
 VX= 9.567209356855095E-01 VY=-1.353698553166810E-01 VZ=-3.566594029576734E-02
 LT= 1.350419516020081E+00 RG= 4.048455860388306E+05 RR=-6.258161920923266E-03
2461138.326388889 = A.D. 2026-Apr-07 19:50:00.0000 TDB 
 X =-5.898880852856240E+04 Y =-3.519683625739259E+05 Z =-1.911425573335704E+05
 VX= 9.569265934800315E-01 VY=-1.340809735845108E-01 VZ=-3.496556401302080E-02
 LT= 1.350406895316520E+00 RG= 4.048418024470882E+05 RR=-6.353819033057243E-03
2461138.333333333 = A.D. 2026-Apr-07 20:00:00.0000 TDB 
 X =-5.841459139252700E+04 Y =-3.520484244085328E+05 Z =-1.911633265339915E+05
 VX= 9.571301816649161E-01 VY=-1.327917519817025E-01 VZ=-3.426508744630483E-02
 LT= 1.350394083115478E+00 RG= 4.048379614458454E+05 RR=-6.449526873086323E-03
2461138.340277778 = A.D. 2026-Apr-07 20:10:00.0000 TDB 
 X =-5.784025272457781E+04 Y =-3.521277126087823E+05 Z =-1.911836754186963E+05
 VX= 9.573316997833198E-01 VY=-1.315021927707832E-01 VZ=-3.356451183130364E-02
 LT= 1.350381079315727E+00 RG= 4.048340630047547E+05 RR=-6.545285142489956E-03
2461138.347222222 = A.D. 2026-Apr-07 20:20:00.0000 TDB 
 X =-5.726579376689132E+04 Y =-3.522062269727886E+05 Z =-1.912036039286265E+05
 VX= 9.575311473802379E-01 VY=-1.302122982145544E-01 VZ=-3.286383840376960E-02
 LT= 1.350367883816638E+00 RG= 4.048301070936483E+05 RR=-6.641093542227775E-03
2461138.354166667 = A.D. 2026-Apr-07 20:30:00.0000 TDB 
 X =-5.669121576191647E+04 Y =-3.522839673000234E+05 Z =-1.912231120054655E+05
 VX= 9.577285240025003E-01 VY=-1.289220705760936E-01 VZ=-3.216306839952466E-02
 LT= 1.350354496518181E+00 RG= 4.048260936825378E+05 RR=-6.736951772739857E-03
2461138.361111111 = A.D. 2026-Apr-07 20:40:00.0000 TDB 
 X =-5.611651995237354E+04 Y =-3.523609333913162E+05 Z =-1.912421995916378E+05
 VX= 9.579238291987704E-01 VY=-1.276315121187584E-01 VZ=-3.146220305446205E-02
 LT= 1.350340917320925E+00 RG= 4.048220227416148E+05 RR=-6.832859533947619E-03
2461138.368055556 = A.D. 2026-Apr-07 20:50:00.0000 TDB 
 X =-5.554170758125306E+04 Y =-3.524371250488548E+05 Z =-1.912608666303098E+05
 VX= 9.581170625195436E-01 VY=-1.263406251061883E-01 VZ=-3.076124360454775E-02
 LT= 1.350327146126041E+00 RG= 4.048178942412511E+05 RR=-6.928816525254752E-03
2461138.375000000 = A.D. 2026-Apr-07 21:00:00.0000 TDB 
 X =-5.496677989181472E+04 Y =-3.525125420761853E+05 Z =-1.912791130653895E+05
 VX= 9.583082235171444E-01 VY=-1.250494118023079E-01 VZ=-3.006019128582214E-02
 LT= 1.350313182835303E+00 RG= 4.048137081519988E+05 RR=-7.024822445547734E-03
2461138.381944444 = A.D. 2026-Apr-07 21:10:00.0000 TDB 
 X =-5.439173812758630E+04 Y =-3.525871842782122E+05 Z =-1.912969388415263E+05
 VX= 9.584973117457247E-01 VY=-1.237578744713298E-01 VZ=-2.935904733440154E-02
 LT= 1.350299027351085E+00 RG= 4.048094644445910E+05 RR=-7.120876993196843E-03
2461138.388888889 = A.D. 2026-Apr-07 21:20:00.0000 TDB 
 X =-5.381658353236248E+04 Y =-3.526610514611984E+05 Z =-1.913143439041115E+05
 VX= 9.586843267612626E-01 VY=-1.224660153777572E-01 VZ=-2.865781298647978E-02
 LT= 1.350284679576368E+00 RG= 4.048051630899418E+05 RR=-7.216979866056700E-03
2461138.395833333 = A.D. 2026-Apr-07 21:30:00.0000 TDB 
 X =-5.324131735020385E+04 Y =-3.527341434327660E+05 Z =-1.913313281992780E+05
 VX= 9.588692681215587E-01 VY=-1.211738367863872E-01 VZ=-2.795648947832986E-02
 LT= 1.350270139414739E+00 RG= 4.048008040591472E+05 RR=-7.313130761467042E-03
2461138.402777778 = A.D. 2026-Apr-07 21:40:00.0000 TDB 
 X =-5.266594082543575E+04 Y =-3.528064600018956E+05 Z =-1.913478916739007E+05
 VX= 9.590521353862366E-01 VY=-1.198813409623130E-01 VZ=-2.725507804630547E-02
 LT= 1.350255406770387E+00 RG= 4.047963873234842E+05 RR=-7.409329376253773E-03
2461138.409722222 = A.D. 2026-Apr-07 21:50:00.0000 TDB 
 X =-5.209045520264720E+04 Y =-3.528780009789272E+05 Z =-1.913640342755961E+05
 VX= 9.592329281167394E-01 VY=-1.185885301709271E-01 VZ=-2.655357992684265E-02
 LT= 1.350240481548113E+00 RG= 4.047919128544125E+05 RR=-7.505575406729495E-03
